NORAD_CAT_ID,OBJECT_NAME,OBJECT_TYPE,EPOCH,MEAN_MOTION,ECCENTRICITY,INCLINATION,RA_OF_ASC_NODE,ARG_OF_PERICENTER,MEAN_ANOMALY,BSTAR,MEAN_MOTION_DOT,MEAN_MOTION_DDOT,TLE_LINE0,TLE_LINE1,TLE_LINE2,SEMIMAJOR_AXIS,PERIOD,APOGEE,PERIGEE,DECAYED
56449.0,STARLINK-5993,PAYLOAD,2024-04-22 22:44:29,14.98352379,0.0002138,70.0025,73.6563,236.2009,123.8946,7.4905e-06,-3e-08,0.0,0 STARLINK-5993,1 56449U 23064B   24113.94756177 -.00000003  00000-0  74905-5 0  9994,2 56449  70.0025  73.6563 0002138 236.2009 123.8946 14.98352379 52528,6950.124,96.106,573.475,570.503,0.0
56449.0,STARLINK-5993,PAYLOAD,2024-04-23 05:09:02,14.98320887,0.0002608,70.0007,72.9803,255.6703,104.4167,0.00044804,5.256e-05,0.0,0 STARLINK-5993,1 56449U 23064B   24114.21461167  .00005256  00000-0  44804-3 0  9994,2 56449  70.0007  72.9803 0002608 255.6703 104.4167 14.98320887 52928,6950.221,96.108,573.899,570.273,0.0
56449.0,STARLINK-5993,PAYLOAD,2024-04-23 06:45:10,14.98324288,0.0002913,69.9998,72.8113,269.5715,90.5111,0.00045689,5.362e-05,0.0,0 STARLINK-5993,1 56449U 23064B   24114.28136971  .00005362  00000-0  45689-3 0  9993,2 56449  69.9998  72.8113 0002913 269.5715  90.5111 14.98324288 52577,6950.211,96.107,574.1,570.051,0.0
56449.0,STARLINK-5993,PAYLOAD,2024-04-23 22:46:30,14.98341396,0.0002455,70.0021,71.1306,253.9582,106.1307,-5.6284e-05,-7.65e-06,0.0,0 STARLINK-5993,1 56449U 23064B   24114.94896803 -.00000765  00000-0 -56284-4 0  9991,2 56449  70.0021  71.1306 0002455 253.9582 106.1307 14.98341396 52674,6950.158,96.106,573.729,570.316,0.0
56449.0,STARLINK-5993,PAYLOAD,2024-04-24 05:11:03,14.98338409,0.0002485,70.0034,70.4599,213.1892,146.9111,-6.9078e-05,-9.17e-06,0.0,0 STARLINK-5993,1 56449U 23064B   24115.21600764 -.00000917  00000-0 -69078-4 0  9995,2 56449  70.0034  70.4599 0002485 213.1892 146.9111 14.98338409 53070,6950.167,96.106,573.759,570.305,0.0
56449.0,STARLINK-5993,PAYLOAD,2024-04-24 06:47:10,14.98347182,0.0002356,70.0009,70.2873,264.5832,95.5059,-3.0042e-05,-4.51e-06,0.0,0 STARLINK-5993,1 56449U 23064B   24115.28276140 -.00000451  00000-0 -30042-4 0  9991,2 56449  70.0009  70.2873 0002356 264.5832  95.5059 14.98347182 52725,6950.14,96.106,573.642,570.367,0.0
56449.0,STARLINK-5993,PAYLOAD,2024-04-24 21:12:23,14.98332695,0.0002166,70.0015,68.773,255.3073,104.7846,5.8399e-05,6.04e-06,0.0,0 STARLINK-5993,1 56449U 23064B   24115.88360562  .00000604  00000-0  58399-4 0  9992,2 56449  70.0015  68.7730 0002166 255.3073 104.7846 14.98332695 53170,6950.185,96.107,573.555,570.544,0.0
56449.0,STARLINK-5993,PAYLOAD,2024-04-24 22:48:31,14.98331855,0.000242,70.0012,68.6047,252.9642,107.1252,3.7832e-05,3.59e-06,0.0,0 STARLINK-5993,1 56449U 23064B   24115.95036611  .00000359  00000-0  37832-4 0  9991,2 56449  70.0012  68.6047 0002420 252.9642 107.1252 14.98331855 52821,6950.187,96.107,573.734,570.37,0.0
56449.0,STARLINK-5993,PAYLOAD,2024-04-25 06:49:12,14.98329344,0.0002457,70.0019,67.7636,250.3282,109.7612,4.0037e-05,3.85e-06,0.0,0 STARLINK-5993,1 56449U 23064B   24116.28416726  .00000385  00000-0  40037-4 0  9997,2 56449  70.0019  67.7636 0002457 250.3282 109.7612 14.98329344 52877,6950.195,96.107,573.768,570.352,0.0
56449.0,STARLINK-5993,PAYLOAD,2024-04-25 21:14:24,14.98336467,0.0002832,70.0012,66.2465,269.2883,90.7952,3.0155e-05,2.67e-06,0.0,0 STARLINK-5993,1 56449U 23064B   24116.88500302  .00000267  00000-0  30155-4 0  9996,2 56449  70.0012  66.2465 0002832 269.2883  90.7952 14.98336467 53328,6950.173,96.107,574.006,570.07,0.0
56449.0,STARLINK-5993,PAYLOAD,2024-04-25 22:50:32,14.98336133,0.0002859,70.0011,66.0783,268.5938,91.4894,2.4171e-05,1.95e-06,0.0,0 STARLINK-5993,1 56449U 23064B   24116.95176312  .00000195  00000-0  24171-4 0  9995,2 56449  70.0011  66.0783 0002859 268.5938  91.4894 14.98336133 52973,6950.174,96.107,574.026,570.052,0.0
56449.0,STARLINK-5993,PAYLOAD,2024-04-26 13:15:45,14.98332011,0.0002182,70.0025,64.5635,270.4547,89.6362,5.3627e-05,5.47e-06,0.0,0 STARLINK-5993,1 56449U 23064B   24117.55260452  .00000547  00000-0  53627-4 0  9990,2 56449  70.0025  64.5635 0002182 270.4547  89.6362 14.98332011 53065,6950.187,96.107,573.568,570.535,0.0
56449.0,STARLINK-5993,PAYLOAD,2024-04-27 03:40:56,14.98334849,0.0002859,70.0011,63.0467,273.5842,86.499,0.00021242,2.443e-05,0.0,0 STARLINK-5993,1 56449U 23064B   24118.15343724  .00002443  00000-0  21242-3 0  9995,2 56449  70.0011  63.0467 0002859 273.5842  86.4990 14.98334849 53513,6950.178,96.107,574.03,570.056,0.0
56449.0,STARLINK-5993,PAYLOAD,2024-04-27 13:17:45,14.98335345,0.0002605,70.0015,62.0372,274.9446,85.1415,6.3642e-05,6.67e-06,0.0,0 STARLINK-5993,1 56449U 23064B   24118.55399806  .00000667  00000-0  63642-4 0  9998,2 56449  70.0015  62.0372 0002605 274.9446  85.1415 14.98335345 53212,6950.176,96.107,573.852,570.231,0.0
56449.0,STARLINK-5993,PAYLOAD,2024-04-27 21:18:26,14.98325956,0.0002222,70.0029,61.203,246.2729,113.8197,7.7785e-06,0.0,0.0,0 STARLINK-5993,1 56449U 23064B   24118.88780655 -.00000000  00000-0  77785-5 0  9996,2 56449  70.0029  61.2030 0002222 246.2729 113.8197 14.98325956 53628,6950.205,96.107,573.615,570.526,0.0
56449.0,STARLINK-5993,PAYLOAD,2024-04-28 03:42:59,14.98320074,0.0002809,70.0005,60.5248,260.7791,99.305,-0.0001131,-1.442e-05,0.0,0 STARLINK-5993,1 56449U 23064B   24119.15485299 -.00001442  00000-0 -11310-3 0  9995,2 56449  70.0005  60.5248 0002809 260.7791  99.3050 14.98320074 53662,6950.224,96.108,574.041,570.136,0.0
56449.0,STARLINK-5993,PAYLOAD,2024-04-28 13:19:47,14.9832883,0.0002857,70.0005,59.5147,263.5883,96.4951,-7.4182e-05,-9.78e-06,0.0,0 STARLINK-5993,1 56449U 23064B   24119.55540730 -.00000978  00000-0 -74182-4 0  9991,2 56449  70.0005  59.5147 0002857 263.5883  96.4951 14.98328830 53727,6950.197,96.107,574.047,570.076,0.0
56449.0,STARLINK-5993,PAYLOAD,2024-04-28 21:20:25,14.98346701,0.0002881,70.0009,58.6723,270.6886,89.3943,0.00018123,2.071e-05,0.0,0 STARLINK-5993,1 56449U 23064B   24119.88918919  .00002071  00000-0  18123-3 0  9991,2 56449  70.0009  58.6723 0002881 270.6886  89.3943 14.98346701 53774,6950.141,96.106,574.009,570.004,0.0
56449.0,STARLINK-5993,PAYLOAD,2024-04-28 22:56:33,14.98347105,0.0002862,70.0009,58.504,271.1122,88.9709,0.00018019,2.059e-05,0.0,0 STARLINK-5993,1 56449U 23064B   24119.95594855  .00002059  00000-0  18019-3 0  9998,2 56449  70.0009  58.5040 0002862 271.1122  88.9709 14.98347105 53429,6950.14,96.106,573.994,570.016,0.0
56449.0,STARLINK-5993,PAYLOAD,2024-04-29 03:44:57,14.98357728,0.0002724,70.0008,57.9976,270.0397,90.045,0.00023571,2.723e-05,0.0,0 STARLINK-5993,1 56449U 23064B   24120.15621744  .00002723  00000-0  23571-3 0  9997,2 56449  70.0008  57.9976 0002724 270.0397  90.0450 14.98357728 53810,6950.107,96.105,573.865,570.079,0.0
56449.0,STARLINK-5993,PAYLOAD,2024-04-29 13:21:46,14.98339989,0.0002401,70.0018,56.9891,279.7029,80.3859,0.00012377,1.385e-05,0.0,0 STARLINK-5993,1 56449U 23064B   24120.55678898  .00001385  00000-0  12377-3 0  9998,2 56449  70.0018  56.9891 0002401 279.7029  80.3859 14.98339989 53876,6950.162,96.106,573.696,570.358,0.0
56449.0,STARLINK-5993,PAYLOAD,2024-04-29 21:22:28,14.98308542,0.0002914,70.0006,56.1482,272.9458,87.1368,4.3944e-05,4.31e-06,0.0,0 STARLINK-5993,1 56449U 23064B   24120.89060997  .00000431  00000-0  43944-4 0  9996,2 56449  70.0006  56.1482 0002914 272.9458  87.1368 14.98308542 53928,6950.259,96.108,574.15,570.099,0.0
56449.0,STARLINK-5993,PAYLOAD,2024-04-29 22:58:36,14.98309211,0.0002893,70.0004,55.9797,272.6786,87.4042,6.1527e-05,6.41e-06,0.0,0 STARLINK-5993,1 56449U 23064B   24120.95737005  .00000641  00000-0  61527-4 0  9994,2 56449  70.0004  55.9797 0002893 272.6786  87.4042 14.98309211 53576,6950.257,96.108,574.133,570.111,0.0
56449.0,STARLINK-5993,PAYLOAD,2024-04-30 05:23:08,14.98317547,0.0002888,70.0002,55.3054,271.934,88.1489,7.2078e-05,7.67e-06,0.0,0 STARLINK-5993,1 56449U 23064B   24121.22440727  .00000767  00000-0  72078-4 0  9999,2 56449  70.0002  55.3054 0002888 271.9340  88.1489 14.98317547 53974,6950.231,96.108,574.104,570.089,0.0
56449.0,STARLINK-5993,PAYLOAD,2024-04-30 13:23:48,14.98324125,0.0002872,70.0004,54.464,272.2387,87.8443,6.2492e-05,6.53e-06,0.0,0 STARLINK-5993,1 56449U 23064B   24121.55820501  .00000653  00000-0  62492-4 0  9990,2 56449  70.0004  54.4640 0002872 272.2387  87.8443 14.98324125 53667,6950.211,96.107,574.072,570.08,0.0
56449.0,STARLINK-5993,PAYLOAD,2024-04-30 21:24:28,14.98334133,0.0003005,70.0004,53.6224,272.7351,87.3464,-5.1734e-05,-7.1e-06,0.0,0 STARLINK-5993,1 56449U 23064B   24121.89200052 -.00000710  00000-0 -51734-4 0  9993,2 56449  70.0004  53.6224 0003005 272.7351  87.3464 14.98334133 54075,6950.18,96.107,574.134,569.957,0.0
56449.0,STARLINK-5993,PAYLOAD,2024-04-30 23:00:36,14.98337497,0.0002795,70.0004,53.4541,274.7008,85.3832,-0.00011726,-1.492e-05,0.0,0 STARLINK-5993,1 56449U 23064B   24121.95875992 -.00001492  00000-0 -11726-3 0  9995,2 56449  70.0004  53.4541 0002795 274.7008  85.3832 14.98337497 53725,6950.17,96.107,573.977,570.092,0.0
56449.0,STARLINK-5993,PAYLOAD,2024-05-01 05:25:08,14.98346868,0.0002893,70.0005,52.7806,273.3926,86.6902,-8.0649e-05,-1.056e-05,0.0,0 STARLINK-5993,1 56449U 23064B   24122.22579151 -.00001056  00000-0 -80649-4 0  9991,2 56449  70.0005  52.7806 0002893 273.3926  86.6902 14.98346868 54124,6950.141,96.106,574.016,569.995,0.0
56449.0,STARLINK-5993,PAYLOAD,2024-05-02 05:27:09,14.98332668,0.0002838,70.0006,50.2558,275.7486,84.335,0.00031634,3.684e-05,0.0,0 STARLINK-5993,1 56449U 23064B   24123.22719624  .00003684  00000-0  31634-3 0  9999,2 56449  70.0006  50.2558 0002838 275.7486  84.3350 14.98332668 54279,6950.185,96.107,574.022,570.077,0.0
56449.0,STARLINK-5993,PAYLOAD,2024-05-02 11:51:42,14.9833085,0.0002834,70.0007,49.5824,275.6328,84.4508,0.00025218,2.917e-05,0.0,0 STARLINK-5993,1 56449U 23064B   24123.49423859  .00002917  00000-0  25218-3 0  9999,2 56449  70.0007  49.5824 0002834 275.6328  84.4508 14.98330850 53958,6950.19,96.107,574.025,570.086,0.0
